OBJECT_NAME,OBJECT_ID,EPOCH,MEAN_MOTION,ECCENTRICITY,INCLINATION,RA_OF_ASC_NODE,ARG_OF_PERICENTER,MEAN_ANOMALY,EPHEMERIS_TYPE,CLASSIFICATION_TYPE,NORAD_CAT_ID,ELEMENT_SET_NO,REV_AT_EPOCH,BSTAR,MEAN_MOTION_DOT,MEAN_MOTION_DDOT
SPACEMOBILE-008,2026-139A,2026-07-23T17:47:29.546016,15.12817576,.0005384,52.9953,96.6069,75.8493,284.3096,0,U,69589,999,551,.56499E-4,.702E-5,0
SPACEMOBILE-009,2026-139B,2026-07-23T16:16:01.576128,15.12717485,.0005611,52.9945,96.9167,73.1236,287.0370,0,U,69590,999,550,.88645E-4,.127E-4,0
SPACEMOBILE-010,2026-139C,2026-07-23T16:21:49.851936,15.12554789,.0005633,52.9950,96.9447,65.6333,294.5246,0,U,69591,999,551,.93509E-4,.1349E-4,0
