[ ["SPACEMOBILE-008", 69589, "1 69589U 26139A   26204.74131419  .00000702  00000+0  56499-4 0  9997", "2 69589  52.9953  96.6069 0005384  75.8493 284.3096 15.12817576  5510", null], ["SPACEMOBILE-009", 69590, "1 69590U 26139B   26204.67779602  .00001270  00000+0  88645-4 0  9992", "2 69590  52.9945  96.9167 0005611  73.1236 287.0370 15.12717485  5506", null], ["SPACEMOBILE-010", 69591, "1 69591U 26139C   26204.68182699  .00001349  00000+0  93509-4 0  9990", "2 69591  52.9950  96.9447 0005633  65.6333 294.5246 15.12554789  5514", null]]